NORAD_CAT_ID,OBJECT_NAME,OBJECT_TYPE,EPOCH,MEAN_MOTION,ECCENTRICITY,INCLINATION,RA_OF_ASC_NODE,ARG_OF_PERICENTER,MEAN_ANOMALY,BSTAR,MEAN_MOTION_DOT,MEAN_MOTION_DDOT,TLE_LINE0,TLE_LINE1,TLE_LINE2,SEMIMAJOR_AXIS,PERIOD,APOGEE,PERIGEE,DECAYED
56780.0,STARLINK-5963,PAYLOAD,2024-06-30 21:06:13,14.98576223,0.0002339,70.0007,99.8446,215.3919,144.7086,0.0025471,0.00030626,0.0,0 STARLINK-5963,1 56780U 23078P   24182.87931803  .00030626  00000-0  25471-2 0  9990,2 56780  70.0007  99.8446 0002339 215.3919 144.7086 14.98576223 60541,6949.432,96.091,572.922,569.671,0.0
56780.0,STARLINK-5963,PAYLOAD,2024-06-30 22:42:20,14.98578238,0.0002347,70.0009,99.6763,220.5605,139.5379,0.0025397,0.00030538,0.0,0 STARLINK-5963,1 56780U 23078P   24182.94606911  .00030538  00000-0  25397-2 0  9996,2 56780  70.0009  99.6763 0002347 220.5605 139.5379 14.98578238 60299,6949.425,96.091,572.921,569.659,0.0
56780.0,STARLINK-5963,PAYLOAD,2024-07-01 00:18:24,14.98621866,0.0002444,70.0006,99.5078,263.9686,96.1195,0.0030142,0.00036332,0.0,0 STARLINK-5963,1 56780U 23078P   24183.01278441  .00036332  00000-0  30142-2 0  9990,2 56780  70.0006  99.5078 0002444 263.9686  96.1195 14.98621866 60562,6949.29,96.088,572.854,569.457,0.0
56780.0,STARLINK-5963,PAYLOAD,2024-07-01 11:30:58,14.98806321,0.0003064,70.0002,98.3278,269.7292,90.3516,0.0045379,0.00055157,0.0,0 STARLINK-5963,1 56780U 23078P   24183.47984776  .00055157  00000-0  45379-2 0  9999,2 56780  70.0002  98.3278 0003064 269.7292  90.3516 14.98806321 60635,6948.72,96.076,572.714,568.456,0.0
56780.0,STARLINK-5963,PAYLOAD,2024-07-01 21:07:36,14.98825303,0.0002869,69.9997,97.319,259.3589,100.7248,0.0048111,0.0005854,0.0,0 STARLINK-5963,1 56780U 23078P   24183.88028380  .00058540  00000-0  48111-2 0  9990,2 56780  69.9997  97.3190 0002869 259.3589 100.7248 14.98825303 60698,6948.662,96.075,572.52,568.533,0.0
56780.0,STARLINK-5963,PAYLOAD,2024-07-01 22:43:42,14.98831358,0.000284,69.9999,97.1506,258.5995,101.4845,0.0047962,0.00058366,0.0,0 STARLINK-5963,1 56780U 23078P   24183.94702029  .00058366  00000-0  47962-2 0  9995,2 56780  69.9999  97.1506 0002840 258.5995 101.4845 14.98831358 60441,6948.643,96.075,572.481,568.535,0.0
56780.0,STARLINK-5963,PAYLOAD,2024-07-02 11:32:29,14.98883196,0.0002888,69.9999,95.802,266.6231,93.4598,0.0045142,0.00054976,0.0,0 STARLINK-5963,1 56780U 23078P   24184.48089581  .00054976  00000-0  45142-2 0  9997,2 56780  69.9999  95.8020 0002888 266.6231  93.4598 14.98883196 60781,6948.483,96.072,572.354,568.341,0.0
56780.0,STARLINK-5963,PAYLOAD,2024-07-02 21:09:00,14.98991128,0.0002892,69.9998,94.7914,274.1504,85.9325,0.0026332,0.00032014,0.0,0 STARLINK-5963,1 56780U 23078P   24184.88125605  .00032014  00000-0  26332-2 0  9998,2 56780  69.9998  94.7914 0002892 274.1504  85.9325 14.98991128 60848,6948.149,96.065,572.024,568.005,0.0
56780.0,STARLINK-5963,PAYLOAD,2024-07-03 03:33:20,14.99041871,0.0002506,70.0002,94.1168,261.032,99.0556,0.001917,0.00023282,0.0,0 STARLINK-5963,1 56780U 23078P   24185.14814981  .00023282  00000-0  19170-2 0  9999,2 56780  70.0002  94.1168 0002506 261.0320  99.0556 14.99041871 60883,6947.992,96.061,571.599,568.116,0.0
56780.0,STARLINK-5963,PAYLOAD,2024-07-03 11:33:43,14.99113917,0.0003134,69.9999,93.2745,270.4181,89.662,0.00053975,6.485e-05,0.0,0 STARLINK-5963,1 56780U 23078P   24185.48175771  .00006485  00000-0  53975-3 0  9991,2 56780  69.9999  93.2745 0003134 270.4181  89.6620 14.99113917 60937,6947.77,96.057,571.812,567.457,0.0
56780.0,STARLINK-5963,PAYLOAD,2024-07-03 20:00:01,14.99161202,0.0003271,70.002,92.3879,268.7642,188.2753,-0.0017094,-0.00020873,0.0,0 STARLINK-5963,1 56780U 23078P   24185.83334491 -.00020873  00000-0 -17094-2 0  9996,2 56780  70.0020  92.3879 0003271 268.7642 188.2753 14.99161202 60985,6947.624,96.054,571.761,567.216,0.0
56780.0,STARLINK-5963,PAYLOAD,2024-07-03 22:00:00,14.99164767,0.000328,70.002,92.1776,270.3431,276.3124,-0.0032857,-0.0003993,0.0,0 STARLINK-5963,1 56780U 23078P   24185.91667824 -.00039930  00000-0 -32857-2 0  9992,2 56780  70.0020  92.1776 0003280 270.3431 276.3124 14.99164767  5725,6947.613,96.053,571.756,567.199,0.0
56780.0,STARLINK-5963,PAYLOAD,2024-07-04 11:34:57,14.99140428,0.0002958,70.0003,90.7483,267.6141,92.468,3.1985e-05,2.96e-06,0.0,0 STARLINK-5963,1 56780U 23078P   24186.48261127  .00000296  00000-0  31985-4 0  9995,2 56780  70.0003  90.7483 0002958 267.6141  92.4680 14.99140428 60827,6947.688,96.055,571.608,567.498,0.0
56780.0,STARLINK-5963,PAYLOAD,2024-07-04 21:11:27,14.99140255,0.0002987,70.0002,89.7376,270.6859,89.3958,7.7144e-05,8.46e-06,0.0,0 STARLINK-5963,1 56780U 23078P   24186.88295443  .00000846  00000-0  77144-4 0  9995,2 56780  70.0002  89.7376 0002987 270.6859  89.3958 14.99140255 61144,6947.688,96.055,571.629,567.478,0.0
56780.0,STARLINK-5963,PAYLOAD,2024-07-04 22:47:32,14.99140383,0.0002988,70.0002,89.5691,270.7057,89.376,7.6837e-05,8.43e-06,0.0,0 STARLINK-5963,1 56780U 23078P   24186.94967831  .00000843  00000-0  76837-4 0  9994,2 56780  70.0002  89.5691 0002988 270.7057  89.3760 14.99140383 60898,6947.688,96.055,571.629,567.477,0.0
56780.0,STARLINK-5963,PAYLOAD,2024-07-05 03:35:46,14.99146875,0.0003067,70.0001,89.0644,271.5063,88.5745,9.9954e-05,1.125e-05,0.0,0 STARLINK-5963,1 56780U 23078P   24187.14984491  .00001125  00000-0  99954-4 0  9997,2 56780  70.0001  89.0644 0003067 271.5063  88.5745 14.99146875 61184,6947.668,96.055,571.664,567.402,0.0
56780.0,STARLINK-5963,PAYLOAD,2024-07-05 19:36:37,14.99133799,0.0002994,70.0002,87.38,271.7729,88.3087,3.304e-05,3.09e-06,0.0,0 STARLINK-5963,1 56780U 23078P   24187.81709500  .00000309  00000-0  33040-4 0  9994,2 56780  70.0002  87.3800 0002994 271.7729  88.3087 14.99133799 61288,6947.708,96.055,571.653,567.493,0.0
56780.0,STARLINK-5963,PAYLOAD,2024-07-05 21:12:41,14.99134092,0.0002994,70.0002,87.2115,271.7937,88.2879,3.3852e-05,3.19e-06,0.0,0 STARLINK-5963,1 56780U 23078P   24187.88381891  .00000319  00000-0  33852-4 0  9992,2 56780  70.0002  87.2115 0002994 271.7937  88.2879 14.99134092 61035,6947.707,96.055,571.653,567.492,0.0
56780.0,STARLINK-5963,PAYLOAD,2024-07-06 02:00:56,14.99140561,0.000297,70.0002,86.7063,271.6973,88.3847,7.6815e-05,8.42e-06,0.0,0 STARLINK-5963,1 56780U 23078P   24188.08398575  .00000842  00000-0  76815-4 0  9999,2 56780  70.0002  86.7063 0002970 271.6973  88.3847 14.99140561 61320,6947.687,96.055,571.616,567.489,0.0
56780.0,STARLINK-5963,PAYLOAD,2024-07-06 10:01:20,14.99166181,0.0003101,70.0006,85.8639,277.2694,82.8113,-0.00048206,-5.967e-05,0.0,0 STARLINK-5963,1 56780U 23078P   24188.41759945 -.00005967  00000-0 -48206-3 0  9995,2 56780  70.0006  85.8639 0003101 277.2694  82.8113 14.99166181 61378,6947.608,96.053,571.628,567.319,0.0
56780.0,STARLINK-5963,PAYLOAD,2024-07-06 19:37:51,14.99136224,0.0002791,70.0007,84.8541,273.2628,86.8212,5.6859e-05,5.99e-06,0.0,0 STARLINK-5963,1 56780U 23078P   24188.81795316  .00000599  00000-0  56859-4 0  9999,2 56780  70.0007  84.8541 0002791 273.2628  86.8212 14.99136224 61433,6947.701,96.055,571.505,567.627,0.0
56780.0,STARLINK-5963,PAYLOAD,2024-07-06 21:13:56,14.99125361,0.0002868,70.0006,84.6856,271.6221,88.4609,0.00023618,2.784e-05,0.0,0 STARLINK-5963,1 56780U 23078P   24188.88468020  .00002784  00000-0  23618-3 0  9999,2 56780  70.0006  84.6856 0002868 271.6221  88.4609 14.99125361 61185,6947.734,96.056,571.592,567.607,0.0
56780.0,STARLINK-5963,PAYLOAD,2024-07-07 03:38:15,14.99140574,0.0002725,70.0007,84.0118,271.5089,88.5759,1.8121e-05,1.27e-06,0.0,0 STARLINK-5963,1 56780U 23078P   24189.15157100  .00000127  00000-0  18121-4 0  9997,2 56780  70.0007  84.0118 0002725 271.5089  88.5759 14.99140574 61229,6947.687,96.055,571.446,567.659,0.0
56780.0,STARLINK-5963,PAYLOAD,2024-07-07 19:39:05,14.99141454,0.0002795,70.0003,82.3275,266.7473,93.3366,6.2702e-05,6.7e-06,0.0,0 STARLINK-5963,1 56780U 23078P   24189.81880844  .00000670  00000-0  62702-4 0  9995,2 56780  70.0003  82.3275 0002795 266.7473  93.3366 14.99141454 61585,6947.685,96.055,571.492,567.608,0.0
56780.0,STARLINK-5963,PAYLOAD,2024-07-08 00:27:19,14.99143556,0.0002779,70.0002,81.8223,266.413,93.6712,8.2713e-05,9.14e-06,0.0,0 STARLINK-5963,1 56780U 23078P   24190.01897825  .00000914  00000-0  82713-4 0  9991,2 56780  70.0002  81.8223 0002779 266.4130  93.6712 14.99143556 61358,6947.678,96.055,571.474,567.612,0.0
56780.0,STARLINK-5963,PAYLOAD,2024-07-08 19:40:19,14.99137588,0.0002716,70.0003,79.8012,262.3146,97.7705,2.6616e-05,2.31e-06,0.0,0 STARLINK-5963,1 56780U 23078P   24190.81967049  .00000231  00000-0  26616-4 0  9997,2 56780  70.0003  79.8012 0002716 262.3146  97.7705 14.99137588 61732,6947.697,96.055,571.449,567.675,0.0
56780.0,STARLINK-5963,PAYLOAD,2024-07-08 22:52:29,14.9913717,0.0002772,70.0001,79.4634,266.972,93.1122,2.3333e-05,1.91e-06,0.0,0 STARLINK-5963,1 56780U 23078P   24190.95311905  .00000191  00000-0  23333-4 0  9994,2 56780  70.0001  79.4634 0002772 266.9720  93.1122 14.99137170 61499,6947.698,96.055,571.489,567.637,0.0
56780.0,STARLINK-5963,PAYLOAD,2024-07-09 10:05:04,14.9913646,0.0002852,70.0,78.2842,269.0488,91.0345,-3.0754e-05,-4.68e-06,0.0,0 STARLINK-5963,1 56780U 23078P   24191.42018891 -.00000468  00000-0 -30754-4 0  9999,2 56780  70.0000  78.2842 0002852 269.0488  91.0345 14.99136460 61563,6947.7,96.055,571.547,567.584,0.0
56780.0,STARLINK-5963,PAYLOAD,2024-07-09 19:41:34,14.99137853,0.000292,69.9998,77.2737,269.3143,90.7681,-5.0462e-05,-7.08e-06,0.0,0 STARLINK-5963,1 56780U 23078P   24191.82053280 -.00000708  00000-0 -50462-4 0  9999,2 56780  69.9998  77.2737 0002920 269.3143  90.7681 14.99137853 61886,6947.696,96.055,571.59,567.532,0.0
56780.0,STARLINK-5963,PAYLOAD,2024-07-09 21:17:39,14.9913717,0.0002945,69.9999,77.1048,268.3806,91.7017,-5.9206e-05,-8.15e-06,0.0,0 STARLINK-5963,1 56780U 23078P   24191.88725738 -.00000815  00000-0 -59206-4 0  9993,2 56780  69.9999  77.1048 0002945 268.3806  91.7017 14.99137170 61632,6947.698,96.055,571.609,567.517,0.0
